{
"type": "FeatureCollection",
"name": "de_cities",
"crs": { "type": "name", "properties": { "name": "urn:ogc:def:crs:OGC:1.3:CRS84" } },
"features": [
{ "type": "Feature", "properties": { "ISO": "DEU", "NAME_ENGLI": "Germany", "NAME_LOCAL": "Deutschland", "id": 34, "name": "Bielefeld" }, "geometry": { "type": "Point", "coordinates": [ 8.530011351158523, 52.029988219300037 ] } },
{ "type": "Feature", "properties": { "ISO": "DEU", "NAME_ENGLI": "Germany", "NAME_LOCAL": "Deutschland", "id": 35, "name": "Dortmund" }, "geometry": { "type": "Point", "coordinates": [ 7.450025592690793, 51.529967060443937 ] } },
{ "type": "Feature", "properties": { "ISO": "DEU", "NAME_ENGLI": "Germany", "NAME_LOCAL": "Deutschland", "id": 36, "name": "Duisburg" }, "geometry": { "type": "Point", "coordinates": [ 6.750016640865056, 51.429973163959176 ] } },
{ "type": "Feature", "properties": { "ISO": "DEU", "NAME_ENGLI": "Germany", "NAME_LOCAL": "Deutschland", "id": 37, "name": "Wuppertal" }, "geometry": { "type": "Point", "coordinates": [ 7.169991006100929, 51.250009988502654 ] } },
{ "type": "Feature", "properties": { "ISO": "DEU", "NAME_ENGLI": "Germany", "NAME_LOCAL": "Deutschland", "id": 38, "name": "Essen" }, "geometry": { "type": "Point", "coordinates": [ 7.016615355058888, 51.449997781472341 ] } },
{ "type": "Feature", "properties": { "ISO": "DEU", "NAME_ENGLI": "Germany", "NAME_LOCAL": "Deutschland", "id": 39, "name": "Karlsruhe" }, "geometry": { "type": "Point", "coordinates": [ 8.399993447512259, 48.999992288298472 ] } },
{ "type": "Feature", "properties": { "ISO": "DEU", "NAME_ENGLI": "Germany", "NAME_LOCAL": "Deutschland", "id": 40, "name": "Heidelberg" }, "geometry": { "type": "Point", "coordinates": [ 8.699975136966486, 49.41999249175052 ] } },
{ "type": "Feature", "properties": { "ISO": "DEU", "NAME_ENGLI": "Germany", "NAME_LOCAL": "Deutschland", "id": 41, "name": "Kassel" }, "geometry": { "type": "Point", "coordinates": [ 9.500029661709334, 51.300006936745149 ] } },
{ "type": "Feature", "properties": { "ISO": "DEU", "NAME_ENGLI": "Germany", "NAME_LOCAL": "Deutschland", "id": 42, "name": "Braunschweig" }, "geometry": { "type": "Point", "coordinates": [ 10.500020302989471, 52.249974791566615 ] } },
{ "type": "Feature", "properties": { "ISO": "DEU", "NAME_ENGLI": "Germany", "NAME_LOCAL": "Deutschland", "id": 43, "name": "Erfurt" }, "geometry": { "type": "Point", "coordinates": [ 11.029962116142485, 50.970052916561428 ] } },
{ "type": "Feature", "properties": { "ISO": "DEU", "NAME_ENGLI": "Germany", "NAME_LOCAL": "Deutschland", "id": 44, "name": "Augsburg" }, "geometry": { "type": "Point", "coordinates": [ 10.899995888928457, 48.350006122931177 ] } },
{ "type": "Feature", "properties": { "ISO": "DEU", "NAME_ENGLI": "Germany", "NAME_LOCAL": "Deutschland", "id": 45, "name": "Furth" }, "geometry": { "type": "Point", "coordinates": [ 10.999989785413163, 49.470015278209182 ] } },
{ "type": "Feature", "properties": { "ISO": "DEU", "NAME_ENGLI": "Germany", "NAME_LOCAL": "Deutschland", "id": 46, "name": "Chemnitz" }, "geometry": { "type": "Point", "coordinates": [ 12.919975950785499, 50.829983946834375 ] } },
{ "type": "Feature", "properties": { "ISO": "DEU", "NAME_ENGLI": "Germany", "NAME_LOCAL": "Deutschland", "id": 142, "name": "Bonn" }, "geometry": { "type": "Point", "coordinates": [ 7.080022337480955, 50.720455748591803 ] } },
{ "type": "Feature", "properties": { "ISO": "DEU", "NAME_ENGLI": "Germany", "NAME_LOCAL": "Deutschland", "id": 143, "name": "Munster" }, "geometry": { "type": "Point", "coordinates": [ 7.620041054930939, 51.970405292867675 ] } },
{ "type": "Feature", "properties": { "ISO": "DEU", "NAME_ENGLI": "Germany", "NAME_LOCAL": "Deutschland", "id": 144, "name": "Dusseldorf" }, "geometry": { "type": "Point", "coordinates": [ 6.779988971594207, 51.220373554583261 ] } },
{ "type": "Feature", "properties": { "ISO": "DEU", "NAME_ENGLI": "Germany", "NAME_LOCAL": "Deutschland", "id": 145, "name": "Mannheim" }, "geometry": { "type": "Point", "coordinates": [ 8.470015013267698, 49.500375182180619 ] } },
{ "type": "Feature", "properties": { "ISO": "DEU", "NAME_ENGLI": "Germany", "NAME_LOCAL": "Deutschland", "id": 146, "name": "Freiburg" }, "geometry": { "type": "Point", "coordinates": [ 7.869948281494489, 48.000415058476612 ] } },
{ "type": "Feature", "properties": { "ISO": "DEU", "NAME_ENGLI": "Germany", "NAME_LOCAL": "Deutschland", "id": 147, "name": "Wiesbaden" }, "geometry": { "type": "Point", "coordinates": [ 8.250028441001234, 50.080391458224483 ] } },
{ "type": "Feature", "properties": { "ISO": "DEU", "NAME_ENGLI": "Germany", "NAME_LOCAL": "Deutschland", "id": 148, "name": "Osnabruck" }, "geometry": { "type": "Point", "coordinates": [ 8.04998897159942, 52.280438048402623 ] } },
{ "type": "Feature", "properties": { "ISO": "DEU", "NAME_ENGLI": "Germany", "NAME_LOCAL": "Deutschland", "id": 149, "name": "Hannover" }, "geometry": { "type": "Point", "coordinates": [ 9.716657265876902, 52.366970234275357 ] } },
{ "type": "Feature", "properties": { "ISO": "DEU", "NAME_ENGLI": "Germany", "NAME_LOCAL": "Deutschland", "id": 150, "name": "Lubeck" }, "geometry": { "type": "Point", "coordinates": [ 10.669984088797436, 53.870392678942835 ] } },
{ "type": "Feature", "properties": { "ISO": "DEU", "NAME_ENGLI": "Germany", "NAME_LOCAL": "Deutschland", "id": 151, "name": "Kiel" }, "geometry": { "type": "Point", "coordinates": [ 10.130017047779461, 54.330390440989 ] } },
{ "type": "Feature", "properties": { "ISO": "DEU", "NAME_ENGLI": "Germany", "NAME_LOCAL": "Deutschland", "id": 152, "name": "Koblenz" }, "geometry": { "type": "Point", "coordinates": [ 7.599990599201817, 50.35047833159814 ] } },
{ "type": "Feature", "properties": { "ISO": "DEU", "NAME_ENGLI": "Germany", "NAME_LOCAL": "Deutschland", "id": 153, "name": "Saarbrucken" }, "geometry": { "type": "Point", "coordinates": [ 6.970003213131464, 49.250390440968715 ] } },
{ "type": "Feature", "properties": { "ISO": "DEU", "NAME_ENGLI": "Germany", "NAME_LOCAL": "Deutschland", "id": 155, "name": "Potsdam" }, "geometry": { "type": "Point", "coordinates": [ 13.069992633728875, 52.400404885968328 ] } },
{ "type": "Feature", "properties": { "ISO": "DEU", "NAME_ENGLI": "Germany", "NAME_LOCAL": "Deutschland", "id": 156, "name": "Magdeburg" }, "geometry": { "type": "Point", "coordinates": [ 11.620003620051138, 52.130421365459426 ] } },
{ "type": "Feature", "properties": { "ISO": "DEU", "NAME_ENGLI": "Germany", "NAME_LOCAL": "Deutschland", "id": 157, "name": "Leipzig" }, "geometry": { "type": "Point", "coordinates": [ 12.409981240497016, 51.335405292865062 ] } },
{ "type": "Feature", "properties": { "ISO": "DEU", "NAME_ENGLI": "Germany", "NAME_LOCAL": "Deutschland", "id": 168, "name": "Rostock" }, "geometry": { "type": "Point", "coordinates": [ 12.149997109636503, 54.070380471912308 ] } },
{ "type": "Feature", "properties": { "ISO": "DEU", "NAME_ENGLI": "Germany", "NAME_LOCAL": "Deutschland", "id": 206, "name": "Stuttgart" }, "geometry": { "type": "Point", "coordinates": [ 9.199996295822755, 48.779979877815663 ] } },
{ "type": "Feature", "properties": { "ISO": "DEU", "NAME_ENGLI": "Germany", "NAME_LOCAL": "Deutschland", "id": 207, "name": "Bremen" }, "geometry": { "type": "Point", "coordinates": [ 8.800020709883597, 53.080001647038614 ] } },
{ "type": "Feature", "properties": { "ISO": "DEU", "NAME_ENGLI": "Germany", "NAME_LOCAL": "Deutschland", "id": 208, "name": "Nurnberg" }, "geometry": { "type": "Point", "coordinates": [ 11.079984902601153, 49.449990660696074 ] } },
{ "type": "Feature", "properties": { "ISO": "DEU", "NAME_ENGLI": "Germany", "NAME_LOCAL": "Deutschland", "id": 236, "name": "Cologne" }, "geometry": { "type": "Point", "coordinates": [ 6.948058575221638, 50.931949540148253 ] } },
{ "type": "Feature", "properties": { "ISO": "DEU", "NAME_ENGLI": "Germany", "NAME_LOCAL": "Deutschland", "id": 287, "name": "Dresden" }, "geometry": { "type": "Point", "coordinates": [ 13.750002806257671, 51.049970519100839 ] } },
{ "type": "Feature", "properties": { "ISO": "DEU", "NAME_ENGLI": "Germany", "NAME_LOCAL": "Deutschland", "id": 336, "name": "Frankfurt" }, "geometry": { "type": "Point", "coordinates": [ 8.675015420169643, 50.099976826063312 ] } },
{ "type": "Feature", "properties": { "ISO": "DEU", "NAME_ENGLI": "Germany", "NAME_LOCAL": "Deutschland", "id": 337, "name": "Hamburg" }, "geometry": { "type": "Point", "coordinates": [ 9.998053285520312, 53.551970495562443 ] } },
{ "type": "Feature", "properties": { "ISO": "DEU", "NAME_ENGLI": "Germany", "NAME_LOCAL": "Deutschland", "id": 338, "name": "Munich" }, "geometry": { "type": "Point", "coordinates": [ 11.573047588912061, 48.131887894629244 ] } },
{ "type": "Feature", "properties": { "ISO": "DEU", "NAME_ENGLI": "Germany", "NAME_LOCAL": "Deutschland", "id": 350, "name": "Berlin" }, "geometry": { "type": "Point", "coordinates": [ 13.399602764700544, 52.523764522251156 ] } }
]
}
